NORAD_CAT_ID,OBJECT_NAME,OBJECT_TYPE,EPOCH,MEAN_MOTION,ECCENTRICITY,INCLINATION,RA_OF_ASC_NODE,ARG_OF_PERICENTER,MEAN_ANOMALY,BSTAR,MEAN_MOTION_DOT,MEAN_MOTION_DDOT,TLE_LINE0,TLE_LINE1,TLE_LINE2,SEMIMAJOR_AXIS,PERIOD,APOGEE,PERIGEE,DECAYED
54202.0,STARLINK-5205,PAYLOAD,2023-12-17 23:58:42,15.08843044,0.0001389,53.2178,42.1214,82.6924,277.4226,0.00010405,1.369e-05,0.0,0 STARLINK-5205,1 54202U 22141AX  23351.99910671  .00001369  00000-0  10405-3 0  9991,2 54202  53.2178  42.1214 0001389  82.6924 277.4226 15.08843044 63542,6917.871,95.437,540.697,538.775,0.0
54202.0,STARLINK-5205,PAYLOAD,2023-12-18 11:06:24,15.088261,0.0001695,53.2184,40.0456,76.6048,283.5133,0.00054306,8.362e-05,0.0,0 STARLINK-5205,1 54202U 22141AX  23352.46278406  .00008362  00000-0  54306-3 0  9995,2 54202  53.2184  40.0456 0001695  76.6048 283.5133 15.08826100 63385,6917.923,95.438,540.96,538.615,0.0
54202.0,STARLINK-5205,PAYLOAD,2023-12-19 09:21:49,15.08838329,0.0001613,53.2184,35.8821,78.1703,281.947,7.0242e-06,-1.76e-06,0.0,0 STARLINK-5205,1 54202U 22141AX  23353.39015359 -.00000176  00000-0  70242-5 0  9999,2 54202  53.2184  35.8821 0001613  78.1703 281.9470 15.08838329 63751,6917.885,95.438,540.866,538.635,0.0
54202.0,STARLINK-5205,PAYLOAD,2023-12-20 09:12:36,15.08838527,0.0001585,53.2183,31.42,93.3851,266.7322,-4.7461e-05,-1.043e-05,0.0,0 STARLINK-5205,1 54202U 22141AX  23354.38375628 -.00001043  00000-0 -47461-4 0  9998,2 54202  53.2183  31.4200 0001585  93.3851 266.7322 15.08838527 63672,6917.885,95.438,540.846,538.653,0.0
54202.0,STARLINK-5205,PAYLOAD,2023-12-21 09:03:23,15.0884698,0.0001591,53.2179,26.956,102.1054,258.0117,0.00035247,5.327e-05,0.0,0 STARLINK-5205,1 54202U 22141AX  23355.37735187  .00005327  00000-0  35247-3 0  9993,2 54202  53.2179  26.9560 0001591 102.1054 258.0117 15.08846980 64057,6917.859,95.437,540.825,538.623,0.0
54202.0,STARLINK-5205,PAYLOAD,2023-12-22 08:54:10,15.08841619,0.000178,53.2182,22.4932,124.3194,235.7967,6.0464e-05,6.74e-06,0.0,0 STARLINK-5205,1 54202U 22141AX  23356.37095368  .00000674  00000-0  60464-4 0  9994,2 54202  53.2182  22.4932 0001780 124.3194 235.7967 15.08841619 64202,6917.875,95.437,540.972,538.509,0.0
54202.0,STARLINK-5205,PAYLOAD,2023-12-23 07:09:34,15.08839296,0.0001764,53.2182,18.3337,117.8742,242.2429,-8.6089e-05,-1.658e-05,0.0,0 STARLINK-5205,1 54202U 22141AX  23357.29831665 -.00001658  00000-0 -86089-4 0  9990,2 54202  53.2182  18.3337 0001764 117.8742 242.2429 15.08839296 64117,6917.883,95.438,540.968,538.527,0.0
54202.0,STARLINK-5205,PAYLOAD,2023-12-24 10:11:07,15.08844997,0.0001444,53.2173,13.271,79.1999,280.9155,0.00020168,2.924e-05,0.0,0 STARLINK-5205,1 54202U 22141AX  23358.42439737  .00002924  00000-0  20168-3 0  9990,2 54202  53.2173  13.2710 0001444  79.1999 280.9155 15.08844997 64518,6917.865,95.437,540.729,538.731,0.0
54202.0,STARLINK-5205,PAYLOAD,2023-12-25 10:01:54,15.08847553,0.000163,53.2176,8.8164,86.3675,273.7503,0.00021859,3.193e-05,0.0,0 STARLINK-5205,1 54202U 22141AX  23359.41799708  .00003193  00000-0  21859-3 0  9994,2 54202  53.2176   8.8164 0001630  86.3675 273.7503 15.08847553 64431,6917.857,95.437,540.85,538.595,0.0
54202.0,STARLINK-5205,PAYLOAD,2023-12-26 08:17:19,15.08839999,0.0001605,53.2176,4.6507,82.9458,277.1717,2.4744e-06,-2.49e-06,0.0,0 STARLINK-5205,1 54202U 22141AX  23360.34536273 -.00000249  00000-0  24744-5 0  9992,2 54202  53.2176   4.6507 0001605  82.9458 277.1717 15.08839999 64800,6917.88,95.438,540.856,538.635,0.0
54202.0,STARLINK-5205,PAYLOAD,2023-12-27 04:57:19,15.08849113,0.0001709,53.2178,0.7889,74.4803,285.6378,0.0001622,2.295e-05,0.0,0 STARLINK-5205,1 54202U 22141AX  23361.20648087  .00002295  00000-0  16220-3 0  9995,2 54202  53.2178   0.7889 0001709  74.4803 285.6378 15.08849113 64702,6917.853,95.437,540.9,538.535,0.0
54202.0,STARLINK-5205,PAYLOAD,2023-12-28 03:12:44,15.08839122,0.0001468,53.2183,356.627,84.9914,275.1246,5.5983e-05,6.03e-06,0.0,0 STARLINK-5205,1 54202U 22141AX  23362.13384575  .00000603  00000-0  55983-4 0  9998,2 54202  53.2183 356.6270 0001468  84.9914 275.1246 15.08839122 65074,6917.883,95.438,540.764,538.733,0.0
54202.0,STARLINK-5205,PAYLOAD,2023-12-28 09:34:16,15.08844007,0.0001454,53.2182,355.4323,97.9658,262.1499,0.00010498,1.383e-05,0.0,0 STARLINK-5205,1 54202U 22141AX  23362.39880129  .00001383  00000-0  10498-3 0  9999,2 54202  53.2182 355.4323 0001454  97.9658 262.1499 15.08844007 64885,6917.868,95.437,540.739,538.727,0.0
54202.0,STARLINK-5205,PAYLOAD,2023-12-29 03:03:32,15.08800393,0.0002145,53.2182,352.1606,106.5613,253.5615,0.00056461,8.699e-05,0.0,0 STARLINK-5205,1 54202U 22141AX  23363.12745663  .00008699  00000-0  56461-3 0  9991,2 54202  53.2182 352.1606 0002145 106.5613 253.5615 15.08800393 65222,6918.001,95.44,541.35,538.383,0.0
54202.0,STARLINK-5205,PAYLOAD,2023-12-29 06:14:17,15.0885581,0.0001659,53.2183,351.5658,108.1031,252.0142,-0.00017686,-3.103e-05,0.0,0 STARLINK-5205,1 54202U 22141AX  23363.25991962 -.00003103  00000-0 -17686-3 0  9993,2 54202  53.2183 351.5658 0001659 108.1031 252.0142 15.08855810 65249,6917.832,95.437,540.845,538.549,0.0
54202.0,STARLINK-5205,PAYLOAD,2023-12-30 04:29:41,15.08847825,0.000169,53.2179,347.402,113.6251,246.4919,-6.9771e-05,-1.399e-05,0.0,0 STARLINK-5205,1 54202U 22141AX  23364.18728310 -.00001399  00000-0 -69771-4 0  9999,2 54202  53.2179 347.4020 0001690 113.6251 246.4919 15.08847825 65382,6917.856,95.437,540.891,538.552,0.0
54202.0,STARLINK-5205,PAYLOAD,2023-12-31 02:45:05,15.08846401,0.0001625,53.2166,343.2356,120.3657,239.7496,-8.5729e-05,-1.652e-05,0.0,0 STARLINK-5205,1 54202U 22141AX  23365.11464713 -.00001652  00000-0 -85729-4 0  9990,2 54202  53.2166 343.2356 0001625 120.3657 239.7496 15.08846401 65527,6917.861,95.437,540.85,538.602,0.0
54202.0,STARLINK-5205,PAYLOAD,2023-12-31 05:55:51,15.08838774,0.0001424,53.2176,342.6438,105.9548,254.1601,6.6112e-05,7.64e-06,0.0,0 STARLINK-5205,1 54202U 22141AX  23365.24712843  .00000764  00000-0  66112-4 0  9990,2 54202  53.2176 342.6438 0001424 105.9548 254.1601 15.08838774 65317,6917.884,95.438,540.734,538.764,0.0
54202.0,STARLINK-5205,PAYLOAD,2024-01-01 04:11:16,15.08835418,0.0001401,53.2175,338.4812,106.3506,253.764,5.3011e-05,5.56e-06,0.0,0 STARLINK-5205,1 54202U 22141AX  24001.17449283  .00000556  00000-0  53011-4 0  9998,2 54202  53.2175 338.4812 0001401 106.3506 253.7640 15.08835418 65689,6917.894,95.438,540.729,538.79,0.0
54202.0,STARLINK-5205,PAYLOAD,2024-01-01 07:22:02,15.08838643,0.0001397,53.2177,337.8869,104.4456,255.6691,0.00010807,1.432e-05,0.0,0 STARLINK-5205,1 54202U 22141AX  24001.30697031  .00001432  00000-0  10807-3 0  9998,2 54202  53.2177 337.8869 0001397 104.4456 255.6691 15.08838643 65470,6917.885,95.438,540.716,538.783,0.0
54202.0,STARLINK-5205,PAYLOAD,2024-01-02 04:02:02,15.08845716,0.0001472,53.219,334.021,79.9427,280.1732,0.00012477,1.699e-05,0.0,0 STARLINK-5205,1 54202U 22141AX  24002.16808618  .00001699  00000-0  12477-3 0  9998,2 54202  53.2190 334.0210 0001472  79.9427 280.1732 15.08845716 65830,6917.863,95.437,540.746,538.71,0.0
54202.0,STARLINK-5205,PAYLOAD,2024-01-02 07:12:48,15.08850739,0.0001493,53.2195,333.4223,81.0618,279.0544,0.00019977,2.894e-05,0.0,0 STARLINK-5205,1 54202U 22141AX  24002.30056130  .00002894  00000-0  19977-3 0  9998,2 54202  53.2195 333.4223 0001493  81.0618 279.0544 15.08850739 65627,6917.848,95.437,540.745,538.68,0.0
54202.0,STARLINK-5205,PAYLOAD,2024-01-03 03:52:49,15.0884257,0.0001635,53.2194,329.554,86.7725,273.3454,4.9613e-05,5.02e-06,0.0,0 STARLINK-5205,1 54202U 22141AX  24003.16168896  .00000502  00000-0  49613-4 0  9991,2 54202  53.2194 329.5540 0001635  86.7725 273.3454 15.08842570 65983,6917.873,95.437,540.869,538.606,0.0
54202.0,STARLINK-5205,PAYLOAD,2024-01-04 06:54:22,15.08850256,0.000147,53.218,324.5096,94.707,265.409,-1.0751e-05,-4.59e-06,0.0,0 STARLINK-5205,1 54202U 22141AX  24004.28776444 -.00000459  00000-0 -10751-4 0  9993,2 54202  53.2180 324.5096 0001470  94.7070 265.4090 15.08850256 66156,6917.849,95.437,540.731,538.697,0.0
54202.0,STARLINK-5205,PAYLOAD,2024-01-05 03:34:23,15.08839639,0.0001754,53.2194,320.6423,97.5069,262.6122,7.7451e-05,9.45e-06,0.0,0 STARLINK-5205,1 54202U 22141AX  24005.14888870  .00000945  00000-0  77451-4 0  9994,2 54202  53.2194 320.6423 0001754  97.5069 262.6122 15.08839639 66287,6917.881,95.438,540.96,538.533,0.0
54202.0,STARLINK-5205,PAYLOAD,2024-01-05 06:45:10,15.088414,0.0001798,53.2195,320.0462,102.6507,257.4686,9.03e-05,1.149e-05,0.0,0 STARLINK-5205,1 54202U 22141AX  24005.28136711  .00001149  00000-0  90300-4 0  9994,2 54202  53.2195 320.0462 0001798 102.6507 257.4686 15.08841400 66071,6917.876,95.437,540.985,538.497,0.0
54202.0,STARLINK-5205,PAYLOAD,2024-01-06 06:35:57,15.08842872,0.0001492,53.2176,315.5847,113.9026,246.2123,3.7483e-05,3.09e-06,0.0,0 STARLINK-5205,1 54202U 22141AX  24006.27496780  .00000309  00000-0  37483-4 0  9999,2 54202  53.2176 315.5847 0001492 113.9026 246.2123 15.08842872 66456,6917.872,95.437,540.769,538.704,0.0
54202.0,STARLINK-5205,PAYLOAD,2024-01-06 19:19:03,15.08833048,0.0001572,53.2172,313.2066,106.232,253.8845,3.3785e-05,2.5e-06,0.0,0 STARLINK-5205,1 54202U 22141AX  24006.80489670  .00000250  00000-0  33785-4 0  9994,2 54202  53.2172 313.2066 0001572 106.2320 253.8845 15.08833048 66530,6917.902,95.438,540.854,538.679,0.0
54202.0,STARLINK-5205,PAYLOAD,2024-01-07 06:26:44,15.08843558,0.0001446,53.2173,311.1254,99.638,260.4776,5.4402e-07,-2.79e-06,0.0,0 STARLINK-5205,1 54202U 22141AX  24007.26857230 -.00000279  00000-0  54402-6 0  9999,2 54202  53.2173 311.1254 0001446  99.6380 260.4776 15.08843558 66600,6917.87,95.437,540.735,538.734,0.0
54202.0,STARLINK-5205,PAYLOAD,2024-01-07 19:09:50,15.08839017,0.0001464,53.2171,308.7465,98.6803,261.4355,3.6346e-05,2.91e-06,0.0,0 STARLINK-5205,1 54202U 22141AX  24007.79849632  .00000291  00000-0  36346-4 0  9992,2 54202  53.2171 308.7465 0001464  98.6803 261.4355 15.08839017 66455,6917.883,95.438,540.761,538.736,0.0
